SENTINEL-6A             
1 46984U 20086A   26193.77246591 -.00000062  00000+0 -43482-5 0  9994
2 46984  66.0413  81.9128 0007810 269.9187  90.0934 12.80930079263601
SENTINEL-6B             
1 66514U 25264A   26193.77281388 -.00000063  00000+0 -69054-5 0  9995
2 66514  66.0413  82.0381 0007871 268.7737  91.2377 12.80930076 30445
